0 ONEWEB-0446
1 51640U 22012U   24144.60587818 -.00000584  00000-0 -17088-2 0  9996
2 51640  87.8960 186.2813 0002094  88.5915 271.5452 13.10373010110508
0 ONEWEB-0448
1 51641U 22012V   24144.61085159 -.00000525  00000-0 -15406-2 0  9996
2 51641  87.8961 186.2814 0002090 100.8837 259.2526 13.10372477110475
0 ONEWEB-0449
1 51642U 22012W   24144.61584030 -.00000887  00000-0 -25770-2 0  9995
2 51642  87.8958 186.2778 0001850 109.6884 250.4443 13.10375925110486
0 ONEWEB-0451
1 51643U 22012X   24144.55466680  .00000123  00000-0  28314-3 0  9998
2 51643  87.9159 156.0573 0001933  93.9728 266.1625 13.17650524114289
0 ONEWEB-0452
1 51644U 22012Y   24144.55307674  .00000091  00000-0  20086-3 0  9998
2 51644  87.9165 156.0957 0001660  95.6421 264.4899 13.17650298115596
0 ONEWEB-0456
1 51646U 22012AA  24144.62580832  .00000138  00000-0  35780-3 0  9996
2 51646  87.8953 186.2480 0002421  94.8431 265.2973 13.10377255110528
0 ONEWEB-0457
1 51647U 22012AB  24144.60255822 -.00000579  00000-0 -16953-2 0  9994
2 51647  87.8955 186.2723 0001685  87.1594 272.9726 13.10371571110523
0 ONEWEB-0458
1 51648U 22012AC  24144.62414691  .00000059  00000-0  13332-3 0  9998
2 51648  87.8963 186.2835 0001968  99.2658 260.8691 13.10377243110480
